NORAD_CAT_ID,OBJECT_NAME,OBJECT_TYPE,EPOCH,MEAN_MOTION,ECCENTRICITY,INCLINATION,RA_OF_ASC_NODE,ARG_OF_PERICENTER,MEAN_ANOMALY,BSTAR,MEAN_MOTION_DOT,MEAN_MOTION_DDOT,TLE_LINE0,TLE_LINE1,TLE_LINE2,SEMIMAJOR_AXIS,PERIOD,APOGEE,PERIGEE,DECAYED
53427.0,STARLINK-4541,PAYLOAD,2022-11-17 18:34:40,15.08837972,0.0001989,53.2207,136.66,46.9466,313.1692,-4.4134e-06,-3.58e-06,0.0,0 STARLINK-4541,1 53427U 22097AR  22321.77407748 -.00000358  00000-0 -44134-5 0  9994,2 53427  53.2207 136.6600 0001989  46.9466 313.1692 15.08837972 15816,6917.887,95.438,541.128,538.376,0.0
53427.0,STARLINK-4541,PAYLOAD,2022-11-18 12:03:54,15.08841601,0.0002014,53.221,133.3889,46.8999,313.2161,-2.1598e-05,-6.32e-06,0.0,0 STARLINK-4541,1 53427U 22097AR  22322.50271590 -.00000632  00000-0 -21598-4 0  9993,2 53427  53.2210 133.3889 0002014  46.8999 313.2161 15.08841601 16405,6917.875,95.437,541.134,538.347,0.0
53427.0,STARLINK-4541,PAYLOAD,2022-11-18 18:25:26,15.08844559,0.0002033,53.2207,132.2001,46.3746,313.7415,5.8644e-06,-1.95e-06,0.0,0 STARLINK-4541,1 53427U 22097AR  22322.76767268 -.00000195  00000-0  58644-5 0  9999,2 53427  53.2207 132.2001 0002033  46.3746 313.7415 15.08844559 15963,6917.866,95.437,541.138,538.325,0.0
53427.0,STARLINK-4541,PAYLOAD,2022-11-19 10:19:18,15.08840833,0.0002042,53.2207,129.2269,46.1303,313.9858,9.004700000000001e-05,1.145e-05,0.0,0 STARLINK-4541,1 53427U 22097AR  22323.43007035  .00001145  00000-0  90047-4 0  9990,2 53427  53.2207 129.2269 0002042  46.1303 313.9858 15.08840833 16541,6917.878000000002,95.438,541.155,538.33,0.0
53427.0,STARLINK-4541,PAYLOAD,2022-11-19 18:16:13,15.08845018,0.0002042,53.2206,127.7406,47.2029,312.9134,0.0001200999999999,1.624e-05,0.0,0 STARLINK-4541,1 53427U 22097AR  22323.76126614  .00001624  00000-0  12010-3 0  9996,2 53427  53.2206 127.7406 0002042  47.2029 312.9134 15.08845018 16594,6917.865,95.437,541.143,538.317,0.0
53427.0,STARLINK-4541,PAYLOAD,2022-11-20 11:45:29,15.08833361,0.0002012,53.2203,124.4703,48.1843,311.9321,-3.8969e-05,-9.08e-06,0.0,0 STARLINK-4541,1 53427U 22097AR  22324.48991979 -.00000908  00000-0 -38969-4 0  9998,2 53427  53.2203 124.4703 0002012  48.1843 311.9321 15.08833361 16221,6917.901,95.438,541.158,538.374,0.0
53427.0,STARLINK-4541,PAYLOAD,2022-11-20 16:31:38,15.08836179,0.0001988,53.2206,123.5786,48.6101,311.5062,-1.7577e-05,-5.68e-06,0.0,0 STARLINK-4541,1 53427U 22097AR  22324.68863746 -.00000568  00000-0 -17577-4 0  9994,2 53427  53.2206 123.5786 0001988  48.6101 311.5062 15.08836179 16732,6917.892,95.438,541.132,538.382,0.0
53427.0,STARLINK-4541,PAYLOAD,2022-11-21 03:39:19,15.088412300000002,0.0002016,53.2216,121.4977,48.7104,311.4062,1.9363e-05,2e-07,0.0,0 STARLINK-4541,1 53427U 22097AR  22325.15231349  .00000020  00000-0  19363-4 0  9991,2 53427  53.2216 121.4977 0002016  48.7104 311.4062 15.08841230 16327,6917.877,95.437,541.136,538.347,0.0
53427.0,STARLINK-4541,PAYLOAD,2022-11-21 11:36:15,15.08844388,0.000195,53.2211,120.0107,45.9271,314.1881,1.7788e-05,-5e-08,0.0,0 STARLINK-4541,1 53427U 22097AR  22325.48351051 -.00000005  00000-0  17788-4 0  9993,2 53427  53.2211 120.0107 0001950  45.9271 314.1881 15.08844388 16856,6917.8669999999975,95.437,541.081,538.383,0.0
53427.0,STARLINK-4541,PAYLOAD,2022-11-21 17:57:47,15.08847805,0.0002015,53.2218,118.8217,47.9807,312.1357,3.4816999999999995e-05,2.66e-06,0.0,0 STARLINK-4541,1 53427U 22097AR  22325.74846700  .00000266  00000-0  34817-4 0  9992,2 53427  53.2218 118.8217 0002015  47.9807 312.1357 15.08847805 16897,6917.857,95.437,541.115,538.328,0.0
53427.0,STARLINK-4541,PAYLOAD,2022-11-22 09:51:39,15.08837638,0.0002122,53.2224,115.8481,51.5339,308.5843,2.9043000000000013e-05,1.74e-06,0.0,0 STARLINK-4541,1 53427U 22097AR  22326.41087262  .00000174  00000-0  29043-4 0  9990,2 53427  53.2224 115.8481 0002122  51.5339 308.5843 15.08837638 16515,6917.888000000001,95.438,541.221,538.285,0.0
53427.0,STARLINK-4541,PAYLOAD,2022-11-22 17:48:35,15.08835671,0.0002142,53.2227,114.3615,51.8638,308.2547,5.8871000000000025e-06,-1.95e-06,0.0,0 STARLINK-4541,1 53427U 22097AR  22326.74207500 -.00000195  00000-0  58871-5 0  9991,2 53427  53.2227 114.3615 0002142  51.8638 308.2547 15.08835671 17040,6917.894,95.438,541.24,538.2769999999998,0.0
53427.0,STARLINK-4541,PAYLOAD,2022-11-23 09:42:26,15.08844742,0.0002201,53.2219,111.3881,50.3798,309.7388,5.1944e-07,-2.8e-06,0.0,0 STARLINK-4541,1 53427U 22097AR  22327.40446967 -.00000280  00000-0  51944-6 0  9997,2 53427  53.2219 111.3881 0002201  50.3798 309.7388 15.08844742 17149,6917.866,95.437,541.254,538.2080000000002,0.0
53427.0,STARLINK-4541,PAYLOAD,2022-11-23 16:03:59,15.08839196,0.0002155,53.2228,110.199,50.7416,309.3767,-2.2184e-05,-6.41e-06,0.0,0 STARLINK-4541,1 53427U 22097AR  22327.66943394 -.00000641  00000-0 -22184-4 0  9995,2 53427  53.2228 110.1990 0002155  50.7416 309.3767 15.08839196 16701,6917.8830000000025,95.438,541.239,538.257,0.0
53427.0,STARLINK-4541,PAYLOAD,2022-11-24 09:33:13,15.08831614,0.0001904,53.2214,106.9268,47.0065,313.1087,3.838e-05,3.23e-06,0.0,0 STARLINK-4541,1 53427U 22097AR  22328.39807779  .00000323  00000-0  38380-4 0  9992,2 53427  53.2214 106.9268 0001904  47.0065 313.1087 15.08831614 17297,6917.906,95.438,541.0880000000002,538.4540000000002,0.0
53427.0,STARLINK-4541,PAYLOAD,2022-11-24 15:54:46,15.08834165,0.0001978,53.2215,105.738,46.2192,313.8964,5.5721e-05,5.99e-06,0.0,0 STARLINK-4541,1 53427U 22097AR  22328.66303699  .00000599  00000-0  55721-4 0  9997,2 53427  53.2215 105.7380 0001978  46.2192 313.8964 15.08834165 17333,6917.898,95.438,541.132,538.395,0.0
53427.0,STARLINK-4541,PAYLOAD,2022-11-25 09:24:00,15.08840023,0.0002,53.2219,102.468,43.1028,317.0121,9.5086e-05,1.225e-05,0.0,0 STARLINK-4541,1 53427U 22097AR  22329.39167191  .00001225  00000-0  95086-4 0  9998,2 53427  53.2219 102.4680 0002000  43.1028 317.0121 15.08840023 16964,6917.88,95.438,541.129,538.362,0.0
53427.0,STARLINK-4541,PAYLOAD,2022-11-25 12:34:46,15.08839298,0.0002008,53.2221,101.8733,43.6285,316.4866,8.7494e-05,1.105e-05,0.0,0 STARLINK-4541,1 53427U 22097AR  22329.52415322  .00001105  00000-0  87494-4 0  9996,2 53427  53.2221 101.8733 0002008  43.6285 316.4866 15.08839298 17464,6917.8830000000025,95.438,541.137,538.3580000000002,0.0
53427.0,STARLINK-4541,PAYLOAD,2022-11-25 15:45:33,15.0883516,0.0001999,53.2225,101.2786,43.8322,316.2828,4.928100000000001e-05,4.96e-06,0.0,0 STARLINK-4541,1 53427U 22097AR  22329.65663735  .00000496  00000-0  49281-4 0  9997,2 53427  53.2225 101.2786 0001999  43.8322 316.2828 15.08835160 17002,6917.895,95.438,541.143,538.377,0.0
53427.0,STARLINK-4541,PAYLOAD,2022-11-26 07:39:24,15.08832435,0.0002025,53.2216,98.304,45.0011,315.1145,9.9366e-05,1.293e-05,0.0,0 STARLINK-4541,1 53427U 22097AR  22330.31903929  .00001293  00000-0  99366-4 0  9999,2 53427  53.2216  98.3040 0002025  45.0011 315.1145 15.08832435 17586,6917.904,95.438,541.169,538.368,0.0
53427.0,STARLINK-4541,PAYLOAD,2022-11-26 18:47:06,15.08847544,0.0002082,53.2221,96.2234,44.0349,316.0809,8.6453e-05,1.088e-05,0.0,0 STARLINK-4541,1 53427U 22097AR  22330.78270958  .00001088  00000-0  86453-4 0  9994,2 53427  53.2221  96.2234 0002082  44.0349 316.0809 15.08847544 17179,6917.857,95.437,541.163,538.2819999999998,0.0
53427.0,STARLINK-4541,PAYLOAD,2022-11-27 09:05:34,15.0883759,0.0002095,53.2215,93.5475,44.5313,315.5847,3.7032e-05,3.01e-06,0.0,0 STARLINK-4541,1 53427U 22097AR  22331.37887568  .00000301  00000-0  37032-4 0  9997,2 53427  53.2215  93.5475 0002095  44.5313 315.5847 15.08837590 17265,6917.888000000001,95.438,541.202,538.303,0.0
53427.0,STARLINK-4541,PAYLOAD,2022-11-27 15:27:06,15.08843288,0.0001989,53.2213,92.358,44.9921,315.1232,8.306200000000001e-05,1.034e-05,0.0,0 STARLINK-4541,1 53427U 22097AR  22331.64382998  .00001034  00000-0  83062-4 0  9992,2 53427  53.2213  92.3580 0001989  44.9921 315.1232 15.08843288 17307,6917.87,95.437,541.111,538.359,0.0
53427.0,STARLINK-4541,PAYLOAD,2022-11-28 00:59:26,15.08834744,0.000211,53.2218,90.5752,44.8435,315.2728,-1.2707e-05,-4.9000000000000005e-06,0.0,0 STARLINK-4541,1 53427U 22097AR  22332.04127963 -.00000490  00000-0 -12707-4 0  9991,2 53427  53.2218  90.5752 0002110  44.8435 315.2728 15.08834744 17363,6917.896,95.438,541.221,538.302,0.0
53427.0,STARLINK-4541,PAYLOAD,2022-11-28 07:20:58,15.08842112,0.0002166,53.221,89.3821,42.2988,317.8171,-6.0868e-05,-1.257e-05,0.0,0 STARLINK-4541,1 53427U 22097AR  22332.30623726 -.00001257  00000-0 -60868-4 0  9991,2 53427  53.2210  89.3821 0002166  42.2988 317.8171 15.08842112 17889,6917.874,95.437,541.237,538.241,0.0
53427.0,STARLINK-4541,PAYLOAD,2022-11-29 08:47:09,15.08842194,0.0002088,53.2209,84.6251,39.7952,320.3193,-3.5046e-05,-8.46e-06,0.0,0 STARLINK-4541,1 53427U 22097AR  22333.36607782 -.00000846  00000-0 -35046-4 0  9995,2 53427  53.2209  84.6251 0002088  39.7952 320.3193 15.08842194 17565,6917.874,95.437,541.183,538.294,0.0
53427.0,STARLINK-4541,PAYLOAD,2022-11-29 16:44:04,15.08845758,0.0002152,53.2207,83.1381,39.8986,320.2164,-2.3076e-06,-3.25e-06,0.0,0 STARLINK-4541,1 53427U 22097AR  22333.69727411 -.00000325  00000-0 -23076-5 0  9996,2 53427  53.2207  83.1381 0002152  39.8986 320.2164 15.08845758 18096,6917.863,95.437,541.217,538.239,0.0
53427.0,STARLINK-4541,PAYLOAD,2022-11-30 13:24:05,15.08850626,0.0002674,53.219,79.2771,45.8308,314.2904,-4.8711e-05,-1.064e-05,0.0,0 STARLINK-4541,1 53427U 22097AR  22334.55839378 -.00001064  00000-0 -48711-4 0  9991,2 53427  53.2190  79.2771 0002674  45.8308 314.2904 15.08850626 18220,6917.848000000001,95.437,541.563,537.863,0.0
53427.0,STARLINK-4541,PAYLOAD,2022-12-01 00:31:48,15.08832508,0.0002325,53.2222,77.1921,44.7265,315.3914,2.316e-05,8e-07,0.0,0 STARLINK-4541,1 53427U 22097AR  22335.02208488  .00000080  00000-0  23160-4 0  9992,2 53427  53.2222  77.1921 0002325  44.7265 315.3914 15.08832508 17819,6917.903,95.438,541.377,538.16,0.0
